[{"OBJECT_NAME":"HORS 5","OBJECT_ID":"2025-313AM","EPOCH":"2026-03-09T21:29:36.364128","MEAN_MOTION":15.22460599,"ECCENTRICITY":0.00102591,"INCLINATION":97.4003,"RA_OF_ASC_NODE":145.2415,"ARG_OF_PERICENTER":355.2078,"MEAN_ANOMALY":4.9058,"EPHEMERIS_TYPE":0,"CLASSIFICATION_TYPE":"U","NORAD_CAT_ID":67283,"ELEMENT_SET_NO":999,"REV_AT_EPOCH":1085,"BSTAR":0.0004492473,"MEAN_MOTION_DOT":0.00010348,"MEAN_MOTION_DDOT":0},{"OBJECT_NAME":"PEGASUS DEB","OBJECT_ID":"1994-029AES","EPOCH":"2026-03-06T17:32:52.876320","MEAN_MOTION":15.2736598,"ECCENTRICITY":0.00781089,"INCLINATION":81.9406,"RA_OF_ASC_NODE":336.1125,"ARG_OF_PERICENTER":102.4632,"MEAN_ANOMALY":258.5359,"EPHEMERIS_TYPE":0,"CLASSIFICATION_TYPE":"U","NORAD_CAT_ID":39307,"ELEMENT_SET_NO":999,"REV_AT_EPOCH":76792,"BSTAR":0.0021826707,"MEAN_MOTION_DOT":0.00064449,"MEAN_MOTION_DDOT":0}]
